{"type": "FeatureCollection", "features": [ {"type": "Feature", "properties": {"norad_id": 35744, "name": "IRIDIUM 33 DEB", "group": "iridium-33-debris", "lat": 52.611894350978176, "lon": 140.7327802912836, "alt_km": 647.3231528409406, "timestamp": "2025-12-12T11:38:31.797770+00:00", "meta": {"OBJECT_NAME": "IRIDIUM 33 DEB", "OBJECT_ID": "1997-051RX", "EPOCH": "2025-12-11T05:40:38.680320", "MEAN_MOTION": 14.70964353, "ECCENTRICITY": 0.00200948, "INCLINATION": 86.3293, "RA_OF_ASC_NODE": 326.1153, "ARG_OF_PERICENTER": 197.6231, "MEAN_ANOMALY": 162.4291, "EPHEMERIS_TYPE": 0, "CLASSIFICATION_TYPE": "U", "NORAD_CAT_ID": 35744, "ELEMENT_SET_NO": 999, "REV_AT_EPOCH": 87309, "BSTAR": 0.0023208663, "MEAN_MOTION_DOT": 0.00014305, "MEAN_MOTION_DDOT": 0}, "tle": {"line1": "1 35744U 97051RX  25345.23655880  .00014305  00000+0  23209-2 0  9991", "line2": "2 35744  86.3293 326.1153 0020094 197.6231 162.4291 14.70964353873095"}}, "geometry": {"type": "Point", "coordinates": [140.7327802912836, 52.611894350978176]}}, {"type": "Feature", "properties": {"norad_id": 35797, "name": "IRIDIUM 33 DEB", "group": "iridium-33-debris", "lat": -24.63016244304322, "lon": 151.77353646641672, "alt_km": 621.2101047434016, "timestamp": "2025-12-12T11:38:31.797780+00:00", "meta": {"OBJECT_NAME": "IRIDIUM 33 DEB", "OBJECT_ID": "1997-051SF", "EPOCH": "2025-12-11T05:34:05.709792", "MEAN_MOTION": 14.82689252, "ECCENTRICITY": 0.00131617, "INCLINATION": 86.3363, "RA_OF_ASC_NODE": 330.6656, "ARG_OF_PERICENTER": 152.8945, "MEAN_ANOMALY": 207.2968, "EPHEMERIS_TYPE": 0, "CLASSIFICATION_TYPE": "U", "NORAD_CAT_ID": 35797, "ELEMENT_SET_NO": 999, "REV_AT_EPOCH": 87318, "BSTAR": 0.0027879355, "MEAN_MOTION_DOT": 0.00022588, "MEAN_MOTION_DDOT": 0}, "tle": {"line1": "1 35797U 97051SF  25345.23201053  .00022588  00000+0  27879-2 0  9997", "line2": "2 35797  86.3363 330.6656 0013161 152.8945 207.2968 14.82689252873185"}}, "geometry": {"type": "Point", "coordinates": [151.77353646641672, -24.63016244304322]}}, {"type": "Feature", "properties": {"norad_id": 35806, "name": "IRIDIUM 33 DEB", "group": "iridium-33-debris", "lat": 6.002768528249087, "lon": -159.64451776291523, "alt_km": 705.6488976708424, "timestamp": "2025-12-12T11:38:31.797790+00:00", "meta": {"OBJECT_NAME": "IRIDIUM 33 DEB", "OBJECT_ID": "1997-051SQ", "EPOCH": "2025-12-10T20:56:47.284800", "MEAN_MOTION": 14.5731398, "ECCENTRICITY": 0.0016091, "INCLINATION": 86.344, "RA_OF_ASC_NODE": 21.4504, "ARG_OF_PERICENTER": 81.1516, "MEAN_ANOMALY": 279.1514, "EPHEMERIS_TYPE": 0, "CLASSIFICATION_TYPE": "U", "NORAD_CAT_ID": 35806, "ELEMENT_SET_NO": 999, "REV_AT_EPOCH": 86297, "BSTAR": 0.0016785, "MEAN_MOTION_DOT": 7.632e-05, "MEAN_MOTION_DDOT": 0}, "tle": {"line1": "1 35806U 97051SQ  25344.87276950  .00007632  00000+0  16785-2 0  9992", "line2": "2 35806  86.3440  21.4504 0016091  81.1516 279.1514 14.57313980862976"}}, "geometry": {"type": "Point", "coordinates": [-159.64451776291523, 6.002768528249087]}}, {"type": "Feature", "properties": {"norad_id": 35809, "name": "IRIDIUM 33 DEB", "group": "iridium-33-debris", "lat": 18.621927332670698, "lon": 154.22557705584768, "alt_km": 642.5833695221127, "timestamp": "2025-12-12T11:38:31.797800+00:00", "meta": {"OBJECT_NAME": "IRIDIUM 33 DEB", "OBJECT_ID": "1997-051ST", "EPOCH": "2025-12-10T16:35:56.421600", "MEAN_MOTION": 14.75629145, "ECCENTRICITY": 0.00097103, "INCLINATION": 86.329, "RA_OF_ASC_NODE": 336.2813, "ARG_OF_PERICENTER": 251.0565, "MEAN_ANOMALY": 108.9602, "EPHEMERIS_TYPE": 0, "CLASSIFICATION_TYPE": "U", "NORAD_CAT_ID": 35809, "ELEMENT_SET_NO": 999, "REV_AT_EPOCH": 86777, "BSTAR": 0.0026432017, "MEAN_MOTION_DOT": 0.00018102, "MEAN_MOTION_DDOT": 0}, "tle": {"line1": "1 35809U 97051ST  25344.69162525  .00018102  00000+0  26432-2 0  9991", "line2": "2 35809  86.3290 336.2813 0009710 251.0565 108.9602 14.75629145867777"}}, "geometry": {"type": "Point", "coordinates": [154.22557705584768, 18.621927332670698]}}, {"type": "Feature", "properties": {"norad_id": 35846, "name": "IRIDIUM 33 DEB", "group": "iridium-33-debris", "lat": -27.595070920733004, "lon": 57.05055474334327, "alt_km": 766.5704130169652, "timestamp": "2025-12-12T11:38:31.797810+00:00", "meta": {"OBJECT_NAME": "IRIDIUM 33 DEB", "OBJECT_ID": "1997-051SW", "EPOCH": "2025-12-10T23:09:37.938816", "MEAN_MOTION": 14.43148066, "ECCENTRICITY": 0.0018649, "INCLINATION": 86.3748, "RA_OF_ASC_NODE": 59.598, "ARG_OF_PERICENTER": 175.7823, "MEAN_ANOMALY": 184.3539, "EPHEMERIS_TYPE": 0, "CLASSIFICATION_TYPE": "U", "NORAD_CAT_ID": 35846, "ELEMENT_SET_NO": 999, "REV_AT_EPOCH": 71303, "BSTAR": 0.00091839, "MEAN_MOTION_DOT": 3.109e-05, "MEAN_MOTION_DDOT": 0}, "tle": {"line1": "1 35846U 97051SW  25344.96502244  .00003109  00000+0  91839-3 0  9993", "line2": "2 35846  86.3748  59.5980 0018649 175.7823 184.3539 14.43148066713035"}}, "geometry": {"type": "Point", "coordinates": [57.05055474334327, -27.595070920733004]}}, {"type": "Feature", "properties": {"norad_id": 35848, "name": "IRIDIUM 33 DEB", "group": "iridium-33-debris", "lat": 68.54400870848801, "lon": -173.00259522410408, "alt_km": 626.0573713728945, "timestamp": "2025-12-12T11:38:31.797820+00:00", "meta": {"OBJECT_NAME": "IRIDIUM 33 DEB", "OBJECT_ID": "1997-051SY", "EPOCH": "2025-12-11T20:31:22.881216", "MEAN_MOTION": 14.78606603, "ECCENTRICITY": 0.0007707, "INCLINATION": 86.3908, "RA_OF_ASC_NODE": 16.5221, "ARG_OF_PERICENTER": 192.3234, "MEAN_ANOMALY": 167.7799, "EPHEMERIS_TYPE": 0, "CLASSIFICATION_TYPE": "U", "NORAD_CAT_ID": 35848, "ELEMENT_SET_NO": 999, "REV_AT_EPOCH": 66677, "BSTAR": 0.0023841, "MEAN_MOTION_DOT": 0.00017502, "MEAN_MOTION_DDOT": 0}, "tle": {"line1": "1 35848U 97051SY  25345.85512594  .00017502  00000+0  23841-2 0  9992", "line2": "2 35848  86.3908  16.5221 0007707 192.3234 167.7799 14.78606603666775"}}, "geometry": {"type": "Point", "coordinates": [-173.00259522410408, 68.54400870848801]}}, {"type": "Feature", "properties": {"norad_id": 35850, "name": "IRIDIUM 33 DEB", "group": "iridium-33-debris", "lat": 76.2237209801679, "lon": -0.5416009812571618, "alt_km": 628.0370508847582, "timestamp": "2025-12-12T11:38:31.797830+00:00", "meta": {"OBJECT_NAME": "IRIDIUM 33 DEB", "OBJECT_ID": "1997-051TA", "EPOCH": "2025-12-06T07:30:15.621984", "MEAN_MOTION": 14.78601393, "ECCENTRICITY": 0.00083892, "INCLINATION": 86.3487, "RA_OF_ASC_NODE": 347.1693, "ARG_OF_PERICENTER": 210.267, "MEAN_ANOMALY": 149.8067, "EPHEMERIS_TYPE": 0, "CLASSIFICATION_TYPE": "U", "NORAD_CAT_ID": 35850, "ELEMENT_SET_NO": 999, "REV_AT_EPOCH": 71262, "BSTAR": 0.0028291764, "MEAN_MOTION_DOT": 0.00020775, "MEAN_MOTION_DDOT": 0}, "tle": {"line1": "1 35850U 97051TA  25340.31268081  .00020775  00000+0  28292-2 0  9991", "line2": "2 35850  86.3487 347.1693 0008389 210.2670 149.8067 14.78601393712623"}}, "geometry": {"type": "Point", "coordinates": [-0.5416009812571618, 76.2237209801679]}}, {"type": "Feature", "properties": {"norad_id": 35915, "name": "IRIDIUM 33 DEB", "group": "iridium-33-debris", "lat": 14.532434896343378, "lon": -15.976098576258243, "alt_km": 635.0705772956635, "timestamp": "2025-12-12T11:38:31.797840+00:00", "meta": {"OBJECT_NAME": "IRIDIUM 33 DEB", "OBJECT_ID": "1997-051TY", "EPOCH": "2025-12-07T18:02:16.498176", "MEAN_MOTION": 14.80542095, "ECCENTRICITY": 0.00101746, "INCLINATION": 86.3429, "RA_OF_ASC_NODE": 345.2367, "ARG_OF_PERICENTER": 205.9072, "MEAN_ANOMALY": 154.1641, "EPHEMERIS_TYPE": 0, "CLASSIFICATION_TYPE": "U", "NORAD_CAT_ID": 35915, "ELEMENT_SET_NO": 999, "REV_AT_EPOCH": 8012, "BSTAR": 0.0030076362, "MEAN_MOTION_DOT": 0.00023136, "MEAN_MOTION_DDOT": 0}, "tle": {"line1": "1 35915U 97051TY  25341.75157984  .00023136  00000+0  30076-2 0  9998", "line2": "2 35915  86.3429 345.2367 0010174 205.9072 154.1641 14.80542095 80126"}}, "geometry": {"type": "Point", "coordinates": [-15.976098576258243, 14.532434896343378]}}, {"type": "Feature", "properties": {"norad_id": 35918, "name": "IRIDIUM 33 DEB", "group": "iridium-33-debris", "lat": -16.33488413009175, "lon": -103.01836270419511, "alt_km": 709.0378123800501, "timestamp": "2025-12-12T11:38:31.797850+00:00", "meta": {"OBJECT_NAME": "IRIDIUM 33 DEB", "OBJECT_ID": "1997-051UB", "EPOCH": "2025-12-11T00:33:20.254176", "MEAN_MOTION": 14.51217376, "ECCENTRICITY": 0.00274283, "INCLINATION": 86.4008, "RA_OF_ASC_NODE": 76.552, "ARG_OF_PERICENTER": 175.0767, "MEAN_ANOMALY": 308.1534, "EPHEMERIS_TYPE": 0, "CLASSIFICATION_TYPE": "U", "NORAD_CAT_ID": 35918, "ELEMENT_SET_NO": 999, "REV_AT_EPOCH": 85182, "BSTAR": 0.001804054, "MEAN_MOTION_DOT": 7.222e-05, "MEAN_MOTION_DDOT": 0}, "tle": {"line1": "1 35918U 97051UB  25345.02315109  .00007222  00000+0  18041-2 0  9996", "line2": "2 35918  86.4008  76.5520 0027428 175.0767 308.1534 14.51217376851820"}}, "geometry": {"type": "Point", "coordinates": [-103.01836270419511, -16.33488413009175]}}, {"type": "Feature", "properties": {"norad_id": 35929, "name": "IRIDIUM 33 DEB", "group": "iridium-33-debris", "lat": -79.49577283764138, "lon": 152.98815392313344, "alt_km": 576.3522618377337, "timestamp": "2025-12-12T11:38:31.797860+00:00", "meta": {"OBJECT_NAME": "IRIDIUM 33 DEB", "OBJECT_ID": "1997-051UN", "EPOCH": "2025-12-12T04:05:36.007296", "MEAN_MOTION": 15.02344569, "ECCENTRICITY": 0.0018262, "INCLINATION": 86.3329, "RA_OF_ASC_NODE": 312.9007, "ARG_OF_PERICENTER": 38.7849, "MEAN_ANOMALY": 321.4691, "EPHEMERIS_TYPE": 0, "CLASSIFICATION_TYPE": "U", "NORAD_CAT_ID": 35929, "ELEMENT_SET_NO": 999, "REV_AT_EPOCH": 87771, "BSTAR": 0.0034494, "MEAN_MOTION_DOT": 0.0004602, "MEAN_MOTION_DDOT": 0}, "tle": {"line1": "1 35929U 97051UN  25346.17055564  .00046020  00000+0  34494-2 0  9990", "line2": "2 35929  86.3329 312.9007 0018262  38.7849 321.4691 15.02344569877716"}}, "geometry": {"type": "Point", "coordinates": [152.98815392313344, -79.49577283764138]}}]}